#aV2011  1  5  0  0   .00000000      96 DD+AD WGS84 FIT  NGA
## 1617 259200.00000000   900.00000000 55566  .0000000000000
+   32     1  2  3  4  5  6  7  8  9 10 11 12 13 14 15 16 17
+         18 19 20 21 22 23 24 25 26 27 28 29 30 31 32  0  0
+          0  0  0  0  0  0  0  0  0  0  0  0  0  0  0  0  0
+          0  0  0  0  0  0  0  0  0  0  0  0  0  0  0  0  0
+          0  0  0  0  0  0  0  0  0  0  0  0  0  0  0  0  0
++         0  0  0  0  0  0  0  0  0  0  0  0  0  0  0  0  0
++         0  0  0  0  0  0  0  0  0  0  0  0  0  0  0  0  0
++         0  0  0  0  0  0  0  0  0  0  0  0  0  0  0  0  0
++         0  0  0  0  0  0  0  0  0  0  0  0  0  0  0  0  0
++         0  0  0  0  0  0  0  0  0  0  0  0  0  0  0  0  0
%c cc cc ccc ccc cccc cccc cccc cccc ccccc ccccc ccccc ccccc
%c cc cc ccc ccc cccc cccc cccc cccc ccccc ccccc ccccc ccccc
%f  0.0000000  0.000000000  0.00000000000  0.000000000000000
%f  0.0000000  0.000000000  0.00000000000  0.000000000000000
%i    0    0    0    0      0      0      0      0         0
%i    0    0    0    0      0      0      0      0         0
/*      NGA, ST. LOUIS,MO.                                  
/*   EPHEMERIS COMPUTED FROM  3 DAYS OF DATA                
/* CCCCCCCCCCCCCCCCCCCCCCCCCCCCCCCCCCCCCCCCCCCCCCCCCCCCCCCCC
/* CCCCCCCCCCCCCCCCCCCCCCCCCCCCCCCCCCCCCCCCCCCCCCCCCCCCCCCCC
*  2011  1  5 14  0   .00000000                                                 
P  1  -3191.866376  23014.779114 -12857.518459   -197.496570                    
V  1 -10039.026851  12878.213523  25894.587530      -.032416                    
P  2 -13099.888946 -23392.554104    825.396044    312.926265                    
V  2   3189.263997   -691.535313  30927.232178       .022374                    
P  3  16011.975145  11784.814403 -18161.463761    658.409300                    
V  3 -21891.233987   4380.004439 -16510.688448       .051036                    
P  4  -4671.430456 -23712.367031  10392.215523       .729940                    
V  4   9711.551296  10200.719970  27463.262388       .099365                    
P  5  -7716.406315 -15252.243972 -20319.129906    -94.103401                    
V  5  13950.568572 -21739.766843  11131.596739      -.059437                    
P  6  11369.299827  13863.668423 -19491.632108    376.482468                    
V  6 -25042.710828   2540.776778 -12503.966760      -.060783                    
P  7  11435.788994  -9935.018477 -21794.482805      1.351825                    
V  7  13837.375919  23962.384263  -3856.291819       .006049                    
P  8   3821.251911 -19086.061267 -17783.780961      7.139462                    
V  8  10870.113974  20040.733893 -19680.526228       .000293                    
P  9 -18341.823301 -10054.088660  15833.969515     53.386704                    
V  9  -9428.300960 -18910.777786 -22165.351672       .024519                    
P 10   4854.961810 -23386.557624 -11411.877989    -62.368778                    
V 10   9989.249233 -10685.111183  26989.429976      -.010838                    
P 11  21539.470422   5481.863279  14468.706987   -116.877123                    
V 11  10644.265028  16136.539093 -21141.545411      -.029532                    
P 12 -16638.968091    313.726592  20695.998880    -38.473081                    
V 12  12825.524946 -22866.966439  10828.300221       .033684                    
P 13  22928.751404  -6062.019399 -12139.552673    286.876477                    
V 13  14963.075821   2728.315629  27157.225836      -.012074                    
P 14  -6609.441213  14040.528933  21692.995241    121.384896                    
V 14 -27047.295393  -2109.759671  -7054.582181       .030255                    
P 15 -25868.328139  -3504.170019  -5328.886248   -164.380499                    
V 15   6729.755389  -2957.559865 -30483.825534       .039817                    
P 16   3710.611286  18145.445328 -18894.393822   -140.233739                    
V 16 -14016.146857  19679.078254  16394.448995      -.030649                    
P 17   8409.971356 -14274.977402  20828.214468    181.106371                    
V 17  26185.325685   1819.253210  -9600.818802       .007000                    
P 18 -16676.467826  19610.752165  -5394.662234    114.259404                    
V 18    511.354783  -8272.212765 -30376.511384       .021288                    
P 19  23903.961403   8228.888298  -8668.752150    -98.662896                    
V 19 -11089.638479   1424.531128 -28889.337686      -.035462                    
P 20  18276.659558  -5312.256509  18355.279479     48.861075                    
V 20  -9587.465246  21774.311768  15792.531036      -.000808                    
P 21 -11420.999247  11215.768303 -20748.081248   -114.500793                    
V 21 -14122.089339 -23515.809156  -5468.877979      -.027101                    
P 22 -10004.189305  23961.534751   5515.456553    155.629155                    
V 22  -6698.131017   3905.005167 -30113.116166      -.007703                    
P 23  26732.724805    -78.310720   -769.440387    333.989774                    
V 23    924.864663   2381.245271  31633.993473      -.022226                    
P 24  18239.481129   7880.868270  17810.381146    353.965425                    
V 24   8546.587920  20810.716506 -17762.488136       .031580                    
P 25 -18279.011162  14800.083670  12328.856180    -61.949529                    
V 25   5753.389908 -14758.616587  26212.518332      -.020850                    
P 26 -17461.545105 -12335.076291 -16602.387263    -88.950721                    
V 26  19791.423396    693.336563 -21696.626494      -.089647                    
P 27 -19037.353789 -14709.588965  12217.574846    223.950392                    
V 27  -6423.215306 -12896.265089 -26799.716734       .038901                    
P 28  12494.918810 -23140.563173   2882.030850     12.989114                    
V 28   3854.593971  -1172.064430 -31936.788080       .019997                    
P 29 -24125.032558   5595.599244  -9467.484789    175.832501                    
V 29 -12025.824630  -3083.848848  28620.977529       .028572                    
P 30  -2945.631464  23681.095030 -12112.492390    310.913853                    
V 30  -8903.937350  11931.604889  26428.199297       .031625                    
P 31   6291.599784  24052.493314   9273.147549     26.359102                    
V 31  -7494.614872  -8996.583647  29282.601411       .042425                    
P 32  14950.095736   5222.265471  21578.869202   -168.599900                    
V 32 -14963.558115  22195.886147   5458.104997      -.080839                    
EOF
